SAR-LUPE 2              
1 31797U 07030A   26183.57017612  .00035869  00000+0  59004-3 0  9997
2 31797  98.1066 289.9378 0002886 203.7217 156.3901 15.52286497 59324
SAPPHIRE                
1 39088U 13009C   26183.63856010  .00000123  00000+0  58105-4 0  9998
2 39088  98.4267   2.7278 0010795 197.1042 162.9781 14.35244888698798
PRAETORIAN SDA_602      
1 65565U 25203A   26183.49362246  .00000097  00000+0  76287-4 0  9994
2 65565  81.3032 356.5934 0006640 147.6069 212.5496 13.83887009 40819
PRAETORIAN SDA_603      
1 65566U 25203B   26183.45028871  .00000258  00000+0  22201-3 0  9999
2 65566  81.3041 356.5555 0010255 147.2370 212.9425 13.83907389 40817
PRAETORIAN SDA_604      
1 65567U 25203C   26183.47945931  .00000059  00000+0  43400-4 0  9991
2 65567  81.3055 356.9644 0006093 151.1504 208.9990 13.83049139 40793
PRAETORIAN SDA_605      
1 65568U 25203D   26183.44052682  .00000022  00000+0  87124-5 0  9993
2 65568  81.3021 356.6487 0008885 143.0698 217.1072 13.83435088 40801
PRAETORIAN SDA_606      
1 65569U 25203E   26183.42569990  .00000064  00000+0  47752-4 0  9995
2 65569  81.3057 356.8956 0006750 146.1104 214.0484 13.83199258 40796
PRAETORIAN SDA_607      
1 65570U 25203F   26182.98808141  .00000185  00000+0  15499-3 0  9997
2 65570  81.3044 356.9351 0009371 148.0757 212.0970 13.84286069 40753
PRAETORIAN SDA_608      
1 65571U 25203G   26183.47659729  .00000082  00000+0  63078-4 0  9992
2 65571  81.3009 356.6510 0006596 150.3073 209.8459 13.83818493 40805
PRAETORIAN SDA_609      
1 65572U 25203H   26183.47717564  .00000175  00000+0  14625-3 0  9991
2 65572  81.3048 356.6308 0007503 145.2417 214.9231 13.84210669 40816
PRAETORIAN SDA_610      
1 65573U 25203J   26183.45687452  .00000074  00000+0  56153-4 0  9993
2 65573  81.3010 356.6287 0007373 149.9794 210.1787 13.83769216 40805
PRAETORIAN SDA_611      
1 65574U 25203K   26183.46273388  .00000348  00000+0  30582-3 0  9995
2 65574  81.3014 356.7992 0006188 153.5726 206.5747 13.83311042 40796
PRAETORIAN SDA_612      
1 65575U 25203L   26183.43328385  .00000312  00000+0  26485-3 0  9999
2 65575  81.3029 356.3759 0009962 146.1155 214.0640 13.85041086 40827
PRAETORIAN SDA_613      
1 65576U 25203M   26183.47548382  .00000067  00000+0  50436-4 0  9996
2 65576  81.3001 356.7967 0006355 144.4651 215.6929 13.82766644 40792
PRAETORIAN SDA_614      
1 65577U 25203N   26183.42534084  .00000043  00000+0  27247-4 0  9994
2 65577  81.3016 356.4646 0007826 143.8446 216.3242 13.84778391 40823
PRAETORIAN SDA_615      
1 65578U 25203P   26183.47825255  .00000197  00000+0  16569-3 0  9997
2 65578  81.3022 356.3891 0009702 144.9100 215.2698 13.84437698 40821
PRAETORIAN SDA_616      
1 65579U 25203Q   26183.46240398  .00000223  00000+0  19287-3 0  9996
2 65579  81.3064 356.9554 0006072 151.7483 208.4003 13.83269257 40790
PRAETORIAN SDA_617      
1 65580U 25203R   26183.48531154  .00000057  00000+0  41330-4 0  9993
2 65580  81.3039 356.7639 0008078 144.1165 216.0535 13.83151244 40800
PRAETORIAN SDA_618      
1 65581U 25203S   26183.44364332  .00000233  00000+0  19844-3 0  9992
2 65581  81.3020 356.3488 0010468 148.6274 211.5509 13.84225057 40823
PRAETORIAN SDA_619      
1 65582U 25203T   26183.48719111  .00000164  00000+0  13740-3 0  9998
2 65582  81.3044 356.6264 0008899 145.6623 214.5110 13.83806778 41449
PRAETORIAN SDA_620      
1 65583U 25203U   26183.44493665  .00000202  00000+0  17180-3 0  9993
2 65583  81.3028 356.6880 0008373 141.4879 218.6876 13.83619986 40806
PRAETORIAN SDA_621      
1 65584U 25203V   26183.48901000  .00000070  00000+0  52205-4 0  9996
2 65584  81.3023 356.5594 0008143 139.2920 220.8847 13.83802855 40813
PRAETORIAN SDA_601      
1 65585U 25203W   26183.46664441  .00000173  00000+0  14672-3 0  9999
2 65585  81.3043 356.8936 0006108 154.5249 205.6209 13.83169664 40796
VICTUS HAZE PUMA        
1 69646U 26142A   26183.61244490  .00000346  00000+0  18747-4 0  9999
2 69646  97.4463  81.0617 0021977 309.0752  50.8528 15.20935823  2010
