OBJECT_NAME,OBJECT_ID,EPOCH,MEAN_MOTION,ECCENTRICITY,INCLINATION,RA_OF_ASC_NODE,ARG_OF_PERICENTER,MEAN_ANOMALY,EPHEMERIS_TYPE,CLASSIFICATION_TYPE,NORAD_CAT_ID,ELEMENT_SET_NO,REV_AT_EPOCH,BSTAR,MEAN_MOTION_DOT,MEAN_MOTION_DDOT
SAR-LUPE 2,2007-030A,2026-07-02T13:41:03.216768,15.52286497,.00028866,98.1066,289.9378,203.7217,156.3901,0,U,31797,999,5932,.59004464E-3,.35869E-3,0
SAPPHIRE,2013-009C,2026-07-02T15:19:31.592640,14.35244888,.00107954,98.4267,2.7278,197.1042,162.9781,0,U,39088,999,69879,.58105441E-4,.123E-5,0
PRAETORIAN SDA_602,2025-203A,2026-07-02T11:50:48.980544,13.83887009,.00066401,81.3032,356.5934,147.6069,212.5496,0,U,65565,999,4081,.76287077E-4,.97E-6,0
PRAETORIAN SDA_603,2025-203B,2026-07-02T10:48:24.944544,13.83907389,.00102553,81.3041,356.5555,147.2370,212.9425,0,U,65566,999,4081,.22200852E-3,.258E-5,0
PRAETORIAN SDA_604,2025-203C,2026-07-02T11:30:25.284384,13.83049139,.00060935,81.3055,356.9644,151.1504,208.9990,0,U,65567,999,4079,.43400439E-4,.59E-6,0
PRAETORIAN SDA_605,2025-203D,2026-07-02T10:34:21.517248,13.83435088,.00088855,81.3021,356.6487,143.0698,217.1072,0,U,65568,999,4080,.8712442E-5,.22E-6,0
PRAETORIAN SDA_606,2025-203E,2026-07-02T10:13:00.471360,13.83199258,.00067505,81.3057,356.8956,146.1104,214.0484,0,U,65569,999,4079,.4775199E-4,.64E-6,0
PRAETORIAN SDA_607,2025-203F,2026-07-01T23:42:50.233824,13.84286069,.00093717,81.3044,356.9351,148.0757,212.0970,0,U,65570,999,4075,.15498985E-3,.185E-5,0
PRAETORIAN SDA_608,2025-203G,2026-07-02T11:26:18.005856,13.83818493,.00065969,81.3009,356.6510,150.3073,209.8459,0,U,65571,999,4080,.63077849E-4,.82E-6,0
PRAETORIAN SDA_609,2025-203H,2026-07-02T11:27:07.975296,13.84210669,.00075032,81.3048,356.6308,145.2417,214.9231,0,U,65572,999,4081,.14625159E-3,.175E-5,0
PRAETORIAN SDA_610,2025-203J,2026-07-02T10:57:53.958528,13.83769216,.0007373,81.3010,356.6287,149.9794,210.1787,0,U,65573,999,4080,.56153102E-4,.74E-6,0
PRAETORIAN SDA_611,2025-203K,2026-07-02T11:06:20.207232,13.83311042,.00061887,81.3014,356.7992,153.5726,206.5747,0,U,65574,999,4079,.30582179E-3,.348E-5,0
PRAETORIAN SDA_612,2025-203L,2026-07-02T10:23:55.724640,13.85041086,.00099626,81.3029,356.3759,146.1155,214.0640,0,U,65575,999,4082,.26484665E-3,.312E-5,0
PRAETORIAN SDA_613,2025-203M,2026-07-02T11:24:41.802048,13.82766644,.0006355,81.3001,356.7967,144.4651,215.6929,0,U,65576,999,4079,.50435551E-4,.67E-6,0
PRAETORIAN SDA_614,2025-203N,2026-07-02T10:12:29.448576,13.84778391,.00078262,81.3016,356.4646,143.8446,216.3242,0,U,65577,999,4082,.27247291E-4,.43E-6,0
PRAETORIAN SDA_615,2025-203P,2026-07-02T11:28:41.020320,13.84437698,.00097024,81.3022,356.3891,144.9100,215.2698,0,U,65578,999,4082,.16569378E-3,.197E-5,0
PRAETORIAN SDA_616,2025-203Q,2026-07-02T11:05:51.703872,13.83269257,.0006072,81.3064,356.9554,151.7483,208.4003,0,U,65579,999,4079,.19286504E-3,.223E-5,0
PRAETORIAN SDA_617,2025-203R,2026-07-02T11:38:50.917056,13.83151244,.00080782,81.3039,356.7639,144.1165,216.0535,0,U,65580,999,4080,.4132971E-4,.57E-6,0
PRAETORIAN SDA_618,2025-203S,2026-07-02T10:38:50.782848,13.84225057,.00104683,81.3020,356.3488,148.6274,211.5509,0,U,65581,999,4082,.1984433E-3,.233E-5,0
PRAETORIAN SDA_619,2025-203T,2026-07-02T11:41:33.311904,13.83806778,.00088999,81.3044,356.6264,145.6623,214.5110,0,U,65582,999,4144,.13739897E-3,.164E-5,0
PRAETORIAN SDA_620,2025-203U,2026-07-02T10:40:42.526560,13.83619986,.00083737,81.3028,356.6880,141.4879,218.6876,0,U,65583,999,4080,.17179613E-3,.202E-5,0
PRAETORIAN SDA_621,2025-203V,2026-07-02T11:44:10.464000,13.83802855,.00081436,81.3023,356.5594,139.2920,220.8847,0,U,65584,999,4081,.52205223E-4,.7E-6,0
PRAETORIAN SDA_601,2025-203W,2026-07-02T11:11:58.077024,13.83169664,.00061083,81.3043,356.8936,154.5249,205.6209,0,U,65585,999,4079,.14671914E-3,.173E-5,0
VICTUS HAZE PUMA,2026-142A,2026-07-02T14:41:55.239360,15.20935823,.00219773,97.4463,81.0617,309.0752,50.8528,0,U,69646,999,201,.18746663E-4,.346E-5,0
